[
    {
        "Altitude(m)": 717876.7674278597,
        "Argument of Periapsis(deg)": 0.006834072711976239,
        "Eccentricity": 0.0,
        "Inclination(deg)": 45.0,
        "Latitude(deg)": -45.14026884332932,
        "Longitude(deg)": 107.77660669050745,
        "Mean Anomaly(deg)": -91.26187001151155,
        "RAAN(deg)": 299.9935488351251,
        "Satellite Name": "Constellation 1 1336",
        "Satellite Number": 1336,
        "Semi-Major Axis(m)": 7083131.272910544,
        "Time(s)": 114
    },
    {
        "Altitude(m)": 717877.2920938414,
        "Argument of Periapsis(deg)": 0.006894020718221645,
        "Eccentricity": 0.0,
        "Inclination(deg)": 45.0,
        "Latitude(deg)": -45.141562290537145,
        "Longitude(deg)": 107.85809624568786,
        "Mean Anomaly(deg)": -91.20116887126163,
        "RAAN(deg)": 299.99349224595954,
        "Satellite Name": "Constellation 1 1336",
        "Satellite Number": 1336,
        "Semi-Major Axis(m)": 7083131.272910544,
        "Time(s)": 115
    },
    {
        "Altitude(m)": 717877.7903716661,
        "Argument of Periapsis(deg)": 0.006953968724467052,
        "Eccentricity": 0.0,
        "Inclination(deg)": 45.0,
        "Latitude(deg)": -45.14279160691299,
        "Longitude(deg)": 107.93958956790374,
        "Mean Anomaly(deg)": -91.14046773101168,
        "RAAN(deg)": 299.9934356567939,
        "Satellite Name": "Constellation 1 1336",
        "Satellite Number": 1336,
        "Semi-Major Axis(m)": 7083131.272910544,
        "Time(s)": 116
    },
    {
        "Altitude(m)": 717878.2622594743,
        "Argument of Periapsis(deg)": 0.007013916730712457,
        "Eccentricity": 0.0,
        "Inclination(deg)": 45.0,
        "Latitude(deg)": -45.143956787015725,
        "Longitude(deg)": 108.02108646594125,
        "Mean Anomaly(deg)": -91.07976659076172,
        "RAAN(deg)": 299.9933790676284,
        "Satellite Name": "Constellation 1 1336",
        "Satellite Number": 1336,
        "Semi-Major Axis(m)": 7083131.272910544,
        "Time(s)": 117
    },
    {
        "Altitude(m)": 717878.7077555042,
        "Argument of Periapsis(deg)": 0.007073864736957864,
        "Eccentricity": 0.0,
        "Inclination(deg)": 45.0,
        "Latitude(deg)": -45.14505782568753,
        "Longitude(deg)": 108.10258674852231,
        "Mean Anomaly(deg)": -91.01906545051199,
        "RAAN(deg)": 299.9933224784628,
        "Satellite Name": "Constellation 1 1336",
        "Satellite Number": 1336,
        "Semi-Major Axis(m)": 7083131.272910544,
        "Time(s)": 118
    },
    {
        "Altitude(m)": 717879.1268580891,
        "Argument of Periapsis(deg)": 0.0071338127432032696,
        "Eccentricity": 0.0,
        "Inclination(deg)": 45.0,
        "Latitude(deg)": -45.146094718053966,
        "Longitude(deg)": 108.18409005621233,
        "Mean Anomaly(deg)": -90.95836431026201,
        "RAAN(deg)": 299.9932658892973,
        "Satellite Name": "Constellation 1 1336",
        "Satellite Number": 1336,
        "Semi-Major Axis(m)": 7083131.272910544,
        "Time(s)": 119
    },
    {
        "Altitude(m)": 717879.5195656617,
        "Argument of Periapsis(deg)": 0.007193760749448674,
        "Eccentricity": 0.0,
        "Inclination(deg)": 45.0,
        "Latitude(deg)": -45.14706745952429,
        "Longitude(deg)": 108.26559653380913,
        "Mean Anomaly(deg)": -90.89766317001201,
        "RAAN(deg)": 299.99320930013164,
        "Satellite Name": "Constellation 1 1336",
        "Satellite Number": 1336,
        "Semi-Major Axis(m)": 7083131.272910544,
        "Time(s)": 120
    },
    {
        "Altitude(m)": 717879.8858767543,
        "Argument of Periapsis(deg)": 0.007253708755694079,
        "Eccentricity": 0.0,
        "Inclination(deg)": 45.0,
        "Latitude(deg)": -45.1479760457912,
        "Longitude(deg)": 108.34710582176653,
        "Mean Anomaly(deg)": -90.83696202976228,
        "RAAN(deg)": 299.99315271096606,
        "Satellite Name": "Constellation 1 1336",
        "Satellite Number": 1336,
        "Semi-Major Axis(m)": 7083131.272910544,
        "Time(s)": 121
    },
    {
        "Altitude(m)": 717880.2257899916,
        "Argument of Periapsis(deg)": 0.0073136567619394854,
        "Eccentricity": 0.0,
        "Inclination(deg)": 45.0,
        "Latitude(deg)": -45.14882047283118,
        "Longitude(deg)": 108.42861772858559,
        "Mean Anomaly(deg)": -90.77626088951232,
        "RAAN(deg)": 299.99309612180053,
        "Satellite Name": "Constellation 1 1336",
        "Satellite Number": 1336,
        "Semi-Major Axis(m)": 7083131.272910544,
        "Time(s)": 122
    },
    {
        "Altitude(m)": 717880.5393041001,
        "Argument of Periapsis(deg)": 0.0073736047681848904,
        "Eccentricity": 0.0,
        "Inclination(deg)": 45.0,
        "Latitude(deg)": -45.14960073690457,
        "Longitude(deg)": 108.51013206271975,
        "Mean Anomaly(deg)": -90.71555974926237,
        "RAAN(deg)": 299.99303953263495,
        "Satellite Name": "Constellation 1 1336",
        "Satellite Number": 1336,
        "Semi-Major Axis(m)": 7083131.272910544,
        "Time(s)": 123
    },
    {
        "Altitude(m)": 717880.8264179031,
        "Argument of Periapsis(deg)": 0.007433552774430298,
        "Eccentricity": 0.0,
        "Inclination(deg)": 45.0,
        "Latitude(deg)": -45.15031683455548,
        "Longitude(deg)": 108.59164863257925,
        "Mean Anomaly(deg)": -90.65485860901242,
        "RAAN(deg)": 299.99298294346943,
        "Satellite Name": "Constellation 1 1336",
        "Satellite Number": 1336,
        "Semi-Major Axis(m)": 7083131.272910544,
        "Time(s)": 124
    },
    {
        "Altitude(m)": 717881.0871303153,
        "Argument of Periapsis(deg)": 0.007493500780675703,
        "Eccentricity": 0.0,
        "Inclination(deg)": 45.0,
        "Latitude(deg)": -45.15096876261204,
        "Longitude(deg)": 108.67316724653391,
        "Mean Anomaly(deg)": -90.59415746876269,
        "RAAN(deg)": 299.99292635430385,
        "Satellite Name": "Constellation 1 1336",
        "Satellite Number": 1336,
        "Semi-Major Axis(m)": 7083131.272910544,
        "Time(s)": 125
    },
    {
        "Altitude(m)": 717881.3214403613,
        "Argument of Periapsis(deg)": 0.007553448786921108,
        "Eccentricity": 0.0,
        "Inclination(deg)": 45.0,
        "Latitude(deg)": -45.15155651818638,
        "Longitude(deg)": 108.75468754482128,
        "Mean Anomaly(deg)": -90.53345632851267,
        "RAAN(deg)": 299.9928697651382,
        "Satellite Name": "Constellation 1 1336",
        "Satellite Number": 1336,
        "Semi-Major Axis(m)": 7083131.272910544,
        "Time(s)": 126
    },
    {
        "Altitude(m)": 717881.5293471507,
        "Argument of Periapsis(deg)": 0.007613396793166514,
        "Eccentricity": 0.0,
        "Inclination(deg)": 45.0,
        "Latitude(deg)": -45.15208009867483,
        "Longitude(deg)": 108.83620967193474,
        "Mean Anomaly(deg)": -90.47275518826284,
        "RAAN(deg)": 299.9928131759727,
        "Satellite Name": "Constellation 1 1336",
        "Satellite Number": 1336,
        "Semi-Major Axis(m)": 7083131.272910544,
        "Time(s)": 127
    },
    {
        "Altitude(m)": 717881.7108499008,
        "Argument of Periapsis(deg)": 0.007673344799411918,
        "Eccentricity": 0.0,
        "Inclination(deg)": 45.0,
        "Latitude(deg)": -45.152539501757694,
        "Longitude(deg)": 108.91773326804842,
        "Mean Anomaly(deg)": -90.41205404801296,
        "RAAN(deg)": 299.9927565868071,
        "Satellite Name": "Constellation 1 1336",
        "Satellite Number": 1336,
        "Semi-Major Axis(m)": 7083131.272910544,
        "Time(s)": 128
    },
    {
        "Altitude(m)": 717881.8659479143,
        "Argument of Periapsis(deg)": 0.007733292805657325,
        "Eccentricity": 0.0,
        "Inclination(deg)": 45.0,
        "Latitude(deg)": -45.15293472539956,
        "Longitude(deg)": 108.99925814140687,
        "Mean Anomaly(deg)": -90.35135290776302,
        "RAAN(deg)": 299.9926999976416,
        "Satellite Name": "Constellation 1 1336",
        "Satellite Number": 1336,
        "Semi-Major Axis(m)": 7083131.272910544,
        "Time(s)": 129
    },
    {
        "Altitude(m)": 717881.9946406041,
        "Argument of Periapsis(deg)": 0.00779324081190273,
        "Eccentricity": 0.0,
        "Inclination(deg)": 45.0,
        "Latitude(deg)": -45.15326576784923,
        "Longitude(deg)": 109.08078410023151,
        "Mean Anomaly(deg)": -90.29065176751305,
        "RAAN(deg)": 299.992643408476,
        "Satellite Name": "Constellation 1 1336",
        "Satellite Number": 1336,
        "Semi-Major Axis(m)": 7083131.272910544,
        "Time(s)": 130
    },
    {
        "Altitude(m)": 717882.0969274765,
        "Argument of Periapsis(deg)": 0.007853188818148135,
        "Eccentricity": 0.0,
        "Inclination(deg)": 45.0,
        "Latitude(deg)": -45.15353262763971,
        "Longitude(deg)": 109.16231095272404,
        "Mean Anomaly(deg)": -90.22995062726326,
        "RAAN(deg)": 299.99258681931036,
        "Satellite Name": "Constellation 1 1336",
        "Satellite Number": 1336,
        "Semi-Major Axis(m)": 7083131.272910544,
        "Time(s)": 131
    },
    {
        "Altitude(m)": 717882.1728081311,
        "Argument of Periapsis(deg)": 0.007913136824393542,
        "Eccentricity": 0.0,
        "Inclination(deg)": 45.0,
        "Latitude(deg)": -45.153735303588434,
        "Longitude(deg)": 109.24383850707116,
        "Mean Anomaly(deg)": -90.16924948701332,
        "RAAN(deg)": 299.99253023014484,
        "Satellite Name": "Constellation 1 1336",
        "Satellite Number": 1336,
        "Semi-Major Axis(m)": 7083131.272910544,
        "Time(s)": 132
    }
]